*******************************************************************************
Ephemeris / WWW_USER Fri Apr 12 18:04:40 2019 Pasadena, USA      / Horizons    
*******************************************************************************
Target body name: Uranus (799)                    {source: ura111}
Center body name: Earth (399)                     {source: DE431mx}
Center-site name: (user defined site below)
*******************************************************************************
Start time      : A.D. 1900-Jan-01 00:00:00.0000 UT      
Stop  time      : A.D. 2100-Jan-01 00:00:00.0000 UT      
Step-size       : 14400 minutes
*******************************************************************************
Target pole/equ : IAU_URANUS                      {East-longitude positive}
Target radii    : 25559.0 x 25559.0 x 24973.0 km  {Equator, meridian, pole}    
Center geodetic : 279.000000,29.0000000,0.0100000 {E-lon(deg),Lat(deg),Alt(km)}
Center cylindric: 279.000000,5582.84695,3073.9060 {E-lon(deg),Dxy(km),Dz(km)}
Center pole/equ : High-precision EOP model        {East-longitude positive}
Center radii    : 6378.1 x 6378.1 x 6356.8 km     {Equator, meridian, pole}    
Target primary  : Sun
Vis. interferer : MOON (R_eq= 1737.400) km        {source: DE431mx}
Rel. light bend : Sun, EARTH                      {source: DE431mx}
Rel. lght bnd GM: 1.3271E+11, 3.9860E+05 km^3/s^2                              
Atmos refraction: YES (Earth refraction model)
RA format       : DEG
Time format     : CAL 
EOP file        : eop.190411.p190703                                           
EOP coverage    : DATA-BASED 1962-JAN-20 TO 2019-APR-11. PREDICTS-> 2019-JUL-02
Units conversion: 1 au= 149597870.700 km, c= 299792.458 km/s, 1 day= 86400.0 s 
Table cut-offs 1: Elevation (-90.0deg=NO ),Airmass (>38.000=NO), Daylight (NO )
Table cut-offs 2: Solar elongation (  0.0,180.0=NO ),Local Hour Angle( 0.0=NO )
Table cut-offs 3: RA/DEC angular rate (     0.0=NO )                           
********************************************************************************
 Date__(UT)__HR:MN     R.A._(ICRF/J2K)_DEC R.A._(r-appar)_DEC. Azi_(r-appr)_Elev
********************************************************************************
$$SOE
 2074-Apr-08 00:00 Cm  280.55003 -23.38609 281.04949 -23.00624  68.7702 -75.6020
 2074-Apr-18 00:00 C   280.56226 -23.38942 281.02623 -23.08556  80.6095 -67.2857
 2074-Apr-28 00:00 Cm  280.48273 -23.39882 280.93959 -23.11751  87.3033 -58.6495
 2074-May-08 00:00 *m  280.31589 -23.41373 280.77392 -23.13437  92.2470 -49.8919
 2074-May-18 00:00 *   280.06992 -23.43331 280.53319 -23.14541  96.4821 -41.0922
 2074-May-28 00:00 *m  279.75468 -23.45647 280.22603 -23.15342 100.4516 -32.3045
 2074-Jun-07 00:00 *m  279.38344 -23.48192 279.86594 -23.15868 104.3987 -23.5817
 2074-Jun-17 00:00 *   278.97182 -23.50837 279.46914 -23.16033 108.4917 -14.9824
 2074-Jun-27 00:00 *m  278.53614 -23.53450 279.05260 -23.15705 112.8743  -6.5754
 2074-Jul-07 00:00 *m  278.09484 -23.55919 278.88829 -23.29561 117.6882   1.2794
 2074-Jul-17 00:00 *   277.66604 -23.58151 278.71240 -23.45876 123.0869   8.7570
 2074-Jul-27 00:00 *m  277.26695 -23.60074 278.35664 -23.50366 129.2394  15.9426
 2074-Aug-06 00:00 *m  276.91457 -23.61645 278.02201 -23.53053 136.3229  22.4705
 2074-Aug-16 00:00 *   276.62296 -23.62842 277.74024 -23.54893 144.4949  28.1141
 2074-Aug-26 00:00 Cm  276.40413 -23.63651 277.52804 -23.56105 153.8321  32.6260
 2074-Sep-05 00:00 Cm  276.26797 -23.64080 277.39691 -23.56764 164.2390  35.7533
 2074-Sep-15 00:00 N   276.22030 -23.64129 277.35323 -23.56905 175.3723  37.2891
 2074-Sep-25 00:00 Nm  276.26495 -23.63801 277.40155 -23.56550 186.6637  37.1397
 2074-Oct-05 00:00 Am  276.40277 -23.63097 277.54328 -23.55692 197.4893  35.3654
 2074-Oct-15 00:00 A   276.63121 -23.62006 277.77621 -23.54306 207.3798  32.1588
 2074-Oct-25 00:00 Am  276.94635 -23.60517 278.09712 -23.52361 216.1186  27.7800
 2074-Nov-04 00:00  m  277.34138 -23.58618 278.50066 -23.49782 223.7069  22.4900
 2074-Nov-14 00:00     277.80750 -23.56293 278.98163 -23.46367 230.2693  16.5144
 2074-Nov-24 00:00  m  278.33521 -23.53541 279.54201 -23.41479 235.9752  10.0396
 2074-Dec-04 00:00  m  278.91264 -23.50368 280.24539 -23.30979 240.9950   3.2749
 2074-Dec-14 00:00     279.52745 -23.46796 281.26431 -23.07105 245.4825  -3.5012
 2074-Dec-24 00:00  m  280.16693 -23.42871 281.92152 -23.05800 249.5714 -10.9299
 2075-Jan-03 00:00 Am  280.81692 -23.38658 282.58490 -23.03807 253.3815 -18.5447
 2075-Jan-13 00:00 A   281.46396 -23.34243 283.24224 -23.01232 257.0250 -26.3125
 2075-Jan-23 00:00 Am  282.09451 -23.29738 283.88055 -22.98171 260.6215 -34.2097
 2075-Feb-02 00:00 Am  282.69467 -23.25268 284.48607 -22.94682 264.3199 -42.2177
 2075-Feb-12 00:00 N   283.25220 -23.20974 285.04633 -22.90754 268.3438 -50.3170
 2075-Feb-22 00:00 Nm  283.75500 -23.17001 285.54828 -22.86172 273.1063 -58.4813
 2075-Mar-04 00:00 N   284.19205 -23.13496 285.97711 -22.80140 279.5640 -66.6553
 2075-Mar-14 00:00 N   284.55457 -23.10594 286.30606 -22.69928 290.6809 -74.6695
 2075-Mar-24 00:00 Cm  284.83444 -23.08412 286.38922 -22.45899 320.1866 -81.6433
 2075-Apr-03 00:00 C   285.02607 -23.07040 285.78822 -22.40737  33.6399 -82.1772
 2075-Apr-13 00:00 C   285.12648 -23.06535 285.64249 -22.64165  67.6555 -75.3518
 2075-Apr-23 00:00 Cm  285.13417 -23.06915 285.61163 -22.72445  79.8251 -67.0692
 2075-May-03 00:00 *   285.05136 -23.08151 285.52062 -22.76160  86.7167 -58.4425
 2075-May-13 00:00 *   284.88284 -23.10177 285.35275 -22.78534  91.7831 -49.6860
 2075-May-23 00:00 *m  284.63567 -23.12884 285.11054 -22.80497  96.1010 -40.8831
 2075-Jun-02 00:00 *   284.32083 -23.16131 284.80375 -22.82310 100.1297 -32.0914
 2075-Jun-12 00:00 *   283.95100 -23.19754 284.44494 -22.83977 104.1216 -23.3642
 2075-Jun-22 00:00 *m  283.54111 -23.23579 284.04974 -22.85373 108.2503 -14.7600
 2075-Jul-02 00:00 *   283.10855 -23.27429 283.63637 -22.86322 112.6622  -6.3489
 2075-Jul-12 00:00 *   282.67051 -23.31140 283.49511 -23.02665 117.5021   1.4877
 2075-Jul-22 00:00 *m  282.24519 -23.34567 283.30376 -23.19131 122.9253   8.9895
 2075-Aug-01 00:00 *   281.85044 -23.37593 282.95104 -23.24637 129.1026  16.1801
 2075-Aug-11 00:00 *   281.50185 -23.40126 282.61997 -23.28260 136.2140  22.7121
 2075-Aug-21 00:00 Cm  281.21431 -23.42101 282.34225 -23.30866 144.4192  28.3583
 2075-Aug-31 00:00 C   280.99977 -23.43477 282.13434 -23.32638 153.7966  32.8709
 2075-Sep-10 00:00 N   280.86707 -23.44228 282.00665 -23.33617 164.2517  35.9957
 2075-Sep-20 00:00 Nm  280.82320 -23.44341 281.96684 -23.33820 175.4369  37.5245
 2075-Sep-30 00:00 N   280.87117 -23.43811 282.01841 -23.33260 186.7790  37.3638
 2075-Oct-10 00:00 A   281.01149 -23.42634 282.16248 -23.31931 197.6485  35.5745
 2075-Oct-20 00:00 Am  281.24253 -23.40812 282.39795 -23.29817 207.5727  32.3516
 2075-Oct-30 00:00 A   281.55912 -23.38346 282.72012 -23.26896 216.3375  27.9563
 2075-Nov-09 00:00     281.95481 -23.35243 283.12402 -23.23120 223.9464  22.6505
 2075-Nov-19 00:00  m  282.42118 -23.31521 283.60486 -23.18322 230.5270  16.6605
 2075-Nov-29 00:00     282.94750 -23.27204 284.16301 -23.11908 236.2515  10.1713
 2075-Dec-09 00:00     283.52281 -23.22336 284.86003 -22.99941 241.2920   3.3894
 2075-Dec-19 00:00  m  284.13456 -23.16980 285.87927 -22.73991 245.8038  -3.3942
 2075-Dec-29 00:00     284.76929 -23.11220 286.53101 -22.70812 249.9228 -10.8362
 2076-Jan-08 00:00 Am  285.41402 -23.05160 287.18860 -22.66922 253.7700 -18.4639
 2076-Jan-18 00:00 Am  286.05466 -22.98930 287.83885 -22.62464 257.4612 -26.2447
 2076-Jan-28 00:00 A   286.67762 -22.92679 288.46877 -22.57575 261.1205 -34.1546
 2076-Feb-07 00:00 Am  287.27018 -22.86569 289.06604 -22.52335 264.9044 -42.1732
 2076-Feb-17 00:00 Nm  287.81920 -22.80776 289.61698 -22.46753 269.0513 -50.2803
 2076-Feb-27 00:00 N   288.31336 -22.75477 290.10904 -22.40619 274.0037 -58.4454
 2076-Mar-08 00:00 Nm  288.74234 -22.70841 290.52773 -22.33099 280.7863 -66.6044
 2076-Mar-18 00:00 Nm  289.09651 -22.67028 290.84292 -22.21379 292.5434 -74.5627
 2076-Mar-28 00:00 C   289.36904 -22.64169 290.90220 -21.96577 323.0359 -81.3395
 2076-Apr-07 00:00 Cm  289.55432 -22.62366 290.33554 -21.92212  32.6561 -81.6938
 2076-Apr-17 00:00 Cm  289.64885 -22.61682 290.18256 -22.14656  66.2371 -74.9880
 2076-Apr-27 00:00 C   289.65247 -22.62129 290.14380 -22.23350  78.7966 -66.7538
 2076-May-07 00:00 *m  289.56661 -22.63674 290.04823 -22.27653  85.9377 -58.1425
 2076-May-17 00:00 *m  289.39604 -22.66234 289.87749 -22.30759  91.1617 -49.3881
 2076-May-27 00:00 *   289.14875 -22.69676 289.63482 -22.33602  95.5853 -40.5824
 2076-Jun-06 00:00 *m  288.83440 -22.73832 289.32829 -22.36431  99.6897 -31.7845
 2076-Jun-16 00:00 *m  288.46625 -22.78503 288.97095 -22.39229 103.7383 -23.0496
 2076-Jun-26 00:00 *   288.05940 -22.83470 288.57865 -22.41834 107.9114 -14.4375
 2076-Jul-06 00:00 *m  287.62993 -22.88515 288.16819 -22.44030 112.3604  -6.0172
 2076-Jul-16 00:00 *   287.19606 -22.93423 288.05687 -22.63213 117.2328   1.7993
 2076-Jul-26 00:00 *   286.77534 -22.98001 287.84559 -22.79469 122.6873   9.3368
 2076-Aug-05 00:00 *m  286.38489 -23.02084 287.49512 -22.85911 128.8984  16.5400
 2076-Aug-15 00:00 *   286.04138 -23.05534 287.16878 -22.90416 136.0490  23.0820
 2076-Aug-25 00:00 C   285.75849 -23.08249 286.89565 -22.93743 144.3036  28.7367
 2076-Sep-04 00:00 Cm  285.54828 -23.10154 286.69190 -22.96035 153.7443  33.2539
 2076-Sep-14 00:00 N   285.42023 -23.11197 286.56888 -22.97301 164.2756  36.3767
 2076-Sep-24 00:00 N   285.38000 -23.11350 286.53272 -22.97541 175.5459  37.8948
 2076-Oct-04 00:00 Am  285.43138 -23.10599 286.58759 -22.96757 186.9700  37.7139
 2076-Oct-14 00:00 A   285.57479 -23.08941 286.73467 -22.94946 197.9081  35.8971
 2076-Oct-24 00:00 A   285.80756 -23.06384 286.97171 -22.92102 207.8838  32.6427
 2076-Nov-03 00:00  m  286.12560 -23.02948 287.29518 -22.88215 216.6840  28.2157
